D-SAT                   
1 42794U 17036AF  26063.43648161  .00011633  00000+0  56507-3 0  9992
2 42794  97.5474  42.8065 0084783 163.2909 197.1149 15.15423040474988
IRIDIUM 113             
1 42803U 17039A   26064.21549992 -.00000007  00000+0 -95639-5 0  9991
2 42803  86.4023   5.6179 0002219  82.3392 277.8056 14.34217540456282
NORSAT 2                
1 42828U 17042D   26064.26700155  .00016374  00000+0  77113-3 0  9994
2 42828  97.3965 239.5573 0010616  59.5580 300.6703 15.19550612471944
TECHNOSAT               
1 42829U 17042E   26064.03790708  .00005342  00000+0  38673-3 0  9994
2 42829  97.4148 225.7843 0019734  90.3006 270.0482 15.04237118471044
FLYING LAPTOP           
1 42831U 17042G   26064.31005988  .00004223  00000+0  33858-3 0  9994
2 42831  97.4258 224.1793 0018726 109.6125 250.7123 15.00481716470870
WNISAT 1R               
1 42835U 17042L   26064.19583796  .00005398  00000+0  42536-3 0  9999
2 42835  97.4488 224.2318 0013164 146.2322 213.9744 15.01104975470904
LEMUR-2-GREENBERG       
1 42837U 17042N   26064.27048010  .00022445  00000+0  82747-3 0  9995
2 42837  97.3765 245.6523 0009405  18.8849 341.2738 15.27772407472504
LEMUR-2-FURIAUS         
1 42840U 17042R   26064.24057826  .00029841  00000+0  11596-2 0  9991
2 42840  97.3738 243.8405 0007578  72.7161 287.4907 15.25982825472337
CORVUS BC2              
1 42846U 17042X   26063.87576654  .00006354  00000+0  44422-3 0  9999
2 42846  97.3930 229.3982 0014272 108.4821 251.7959 15.05549034471367
CORVUS BC1              
1 42847U 17042Y   26064.28169659  .00005610  00000+0  39056-3 0  9990
2 42847  97.3961 230.5300 0013216  85.3810 274.8926 15.05767106471450
VRSS-2                  
1 42954U 17060A   26064.28211810  .00001989  00000+0  26239-3 0  9990
2 42954  97.6658 106.6295 0018651  80.6437 279.6884 14.81008186453075
MOHAMMED VI-A           
1 43005U 17070A   26064.29460552  .00001242  00000+0  18297-3 0  9996
2 43005  97.9444 138.1043 0001401  98.1102 262.0267 14.77116046448646
FENGYUN 3D              
1 43010U 17072A   26064.26663782  .00000495  00000+0  25564-3 0  9995
2 43010  99.0020  36.8703 0001804  21.7267 338.3984 14.19714419430247
CZ-4C R/B               
1 43012U 17072C   26064.26031297  .00000849  00000+0  17445-3 0  9999
2 43012  98.5701 168.9215 0123683 111.9042 249.5359 14.58686903441483
NOAA 20 (JPSS-1)        
1 43013U 17073A   26064.24685596  .00000118  00000+0  76800-4 0  9996
2 43013  98.7688   4.6783 0001011 143.4453 216.6792 14.19534754429724
MAKERSAT 0              
1 43016U 17073D   26064.18265544  .00026363  00000+0  80216-3 0  9994
2 43016  97.4789 306.1470 0115836 282.0511  76.7766 15.27547333450563
