[{"OBJECT_NAME":"D-SAT","OBJECT_ID":"2017-036AF","EPOCH":"2026-03-04T10:28:32.011104","MEAN_MOTION":15.1542304,"ECCENTRICITY":0.00847831,"INCLINATION":97.5474,"RA_OF_ASC_NODE":42.8065,"ARG_OF_PERICENTER":163.2909,"MEAN_ANOMALY":197.1149,"EPHEMERIS_TYPE":0,"CLASSIFICATION_TYPE":"U","NORAD_CAT_ID":42794,"ELEMENT_SET_NO":999,"REV_AT_EPOCH":47498,"BSTAR":0.00056506594,"MEAN_MOTION_DOT":0.00011633,"MEAN_MOTION_DDOT":0},{"OBJECT_NAME":"IRIDIUM 113","OBJECT_ID":"2017-039A","EPOCH":"2026-03-05T05:10:19.193088","MEAN_MOTION":14.3421754,"ECCENTRICITY":0.00022193,"INCLINATION":86.4023,"RA_OF_ASC_NODE":5.6179,"ARG_OF_PERICENTER":82.3392,"MEAN_ANOMALY":277.8056,"EPHEMERIS_TYPE":0,"CLASSIFICATION_TYPE":"U","NORAD_CAT_ID":42803,"ELEMENT_SET_NO":999,"REV_AT_EPOCH":45628,"BSTAR":-9.563874e-6,"MEAN_MOTION_DOT":-7.0e-8,"MEAN_MOTION_DDOT":0},{"OBJECT_NAME":"NORSAT 2","OBJECT_ID":"2017-042D","EPOCH":"2026-03-05T06:24:28.933920","MEAN_MOTION":15.19550612,"ECCENTRICITY":0.00106165,"INCLINATION":97.3965,"RA_OF_ASC_NODE":239.5573,"ARG_OF_PERICENTER":59.558,"MEAN_ANOMALY":300.6703,"EPHEMERIS_TYPE":0,"CLASSIFICATION_TYPE":"U","NORAD_CAT_ID":42828,"ELEMENT_SET_NO":999,"REV_AT_EPOCH":47194,"BSTAR":0.0007711347,"MEAN_MOTION_DOT":0.00016374,"MEAN_MOTION_DDOT":0},{"OBJECT_NAME":"TECHNOSAT","OBJECT_ID":"2017-042E","EPOCH":"2026-03-05T00:54:35.171712","MEAN_MOTION":15.04237118,"ECCENTRICITY":0.00197346,"INCLINATION":97.4148,"RA_OF_ASC_NODE":225.7843,"ARG_OF_PERICENTER":90.3006,"MEAN_ANOMALY":270.0482,"EPHEMERIS_TYPE":0,"CLASSIFICATION_TYPE":"U","NORAD_CAT_ID":42829,"ELEMENT_SET_NO":999,"REV_AT_EPOCH":47104,"BSTAR":0.00038673254,"MEAN_MOTION_DOT":5.342e-5,"MEAN_MOTION_DDOT":0},{"OBJECT_NAME":"FLYING LAPTOP","OBJECT_ID":"2017-042G","EPOCH":"2026-03-05T07:26:29.173632","MEAN_MOTION":15.00481716,"ECCENTRICITY":0.00187264,"INCLINATION":97.4258,"RA_OF_ASC_NODE":224.1793,"ARG_OF_PERICENTER":109.6125,"MEAN_ANOMALY":250.7123,"EPHEMERIS_TYPE":0,"CLASSIFICATION_TYPE":"U","NORAD_CAT_ID":42831,"ELEMENT_SET_NO":999,"REV_AT_EPOCH":47087,"BSTAR":0.0003385778,"MEAN_MOTION_DOT":4.223e-5,"MEAN_MOTION_DDOT":0},{"OBJECT_NAME":"WNISAT 1R","OBJECT_ID":"2017-042L","EPOCH":"2026-03-05T04:42:00.399744","MEAN_MOTION":15.01104975,"ECCENTRICITY":0.00131649,"INCLINATION":97.4488,"RA_OF_ASC_NODE":224.2318,"ARG_OF_PERICENTER":146.2322,"MEAN_ANOMALY":213.9744,"EPHEMERIS_TYPE":0,"CLASSIFICATION_TYPE":"U","NORAD_CAT_ID":42835,"ELEMENT_SET_NO":999,"REV_AT_EPOCH":47090,"BSTAR":0.00042536404,"MEAN_MOTION_DOT":5.398e-5,"MEAN_MOTION_DDOT":0},{"OBJECT_NAME":"LEMUR-2-GREENBERG","OBJECT_ID":"2017-042N","EPOCH":"2026-03-05T06:29:29.480640","MEAN_MOTION":15.27772407,"ECCENTRICITY":0.00094052,"INCLINATION":97.3765,"RA_OF_ASC_NODE":245.6523,"ARG_OF_PERICENTER":18.8849,"MEAN_ANOMALY":341.2738,"EPHEMERIS_TYPE":0,"CLASSIFICATION_TYPE":"U","NORAD_CAT_ID":42837,"ELEMENT_SET_NO":999,"REV_AT_EPOCH":47250,"BSTAR":0.00082746507,"MEAN_MOTION_DOT":0.00022445,"MEAN_MOTION_DDOT":0},{"OBJECT_NAME":"LEMUR-2-FURIAUS","OBJECT_ID":"2017-042R","EPOCH":"2026-03-05T05:46:25.961664","MEAN_MOTION":15.25982825,"ECCENTRICITY":0.00075788,"INCLINATION":97.3738,"RA_OF_ASC_NODE":243.8405,"ARG_OF_PERICENTER":72.7161,"MEAN_ANOMALY":287.4907,"EPHEMERIS_TYPE":0,"CLASSIFICATION_TYPE":"U","NORAD_CAT_ID":42840,"ELEMENT_SET_NO":999,"REV_AT_EPOCH":47233,"BSTAR":0.0011595744,"MEAN_MOTION_DOT":0.00029841,"MEAN_MOTION_DDOT":0},{"OBJECT_NAME":"CORVUS BC2","OBJECT_ID":"2017-042X","EPOCH":"2026-03-04T21:01:06.229056","MEAN_MOTION":15.05549034,"ECCENTRICITY":0.00142726,"INCLINATION":97.393,"RA_OF_ASC_NODE":229.3982,"ARG_OF_PERICENTER":108.4821,"MEAN_ANOMALY":251.7959,"EPHEMERIS_TYPE":0,"CLASSIFICATION_TYPE":"U","NORAD_CAT_ID":42846,"ELEMENT_SET_NO":999,"REV_AT_EPOCH":47136,"BSTAR":0.00044421809,"MEAN_MOTION_DOT":6.354e-5,"MEAN_MOTION_DDOT":0},{"OBJECT_NAME":"CORVUS BC1","OBJECT_ID":"2017-042Y","EPOCH":"2026-03-05T06:45:38.585376","MEAN_MOTION":15.05767106,"ECCENTRICITY":0.00132164,"INCLINATION":97.3961,"RA_OF_ASC_NODE":230.53,"ARG_OF_PERICENTER":85.381,"MEAN_ANOMALY":274.8926,"EPHEMERIS_TYPE":0,"CLASSIFICATION_TYPE":"U","NORAD_CAT_ID":42847,"ELEMENT_SET_NO":999,"REV_AT_EPOCH":47145,"BSTAR":0.00039056215,"MEAN_MOTION_DOT":5.61e-5,"MEAN_MOTION_DDOT":0},{"OBJECT_NAME":"VRSS-2","OBJECT_ID":"2017-060A","EPOCH":"2026-03-05T06:46:15.003840","MEAN_MOTION":14.81008186,"ECCENTRICITY":0.00186513,"INCLINATION":97.6658,"RA_OF_ASC_NODE":106.6295,"ARG_OF_PERICENTER":80.6437,"MEAN_ANOMALY":279.6884,"EPHEMERIS_TYPE":0,"CLASSIFICATION_TYPE":"U","NORAD_CAT_ID":42954,"ELEMENT_SET_NO":999,"REV_AT_EPOCH":45307,"BSTAR":0.00026239302,"MEAN_MOTION_DOT":1.989e-5,"MEAN_MOTION_DDOT":0},{"OBJECT_NAME":"MOHAMMED VI-A","OBJECT_ID":"2017-070A","EPOCH":"2026-03-05T07:04:13.916928","MEAN_MOTION":14.77116046,"ECCENTRICITY":0.00014013,"INCLINATION":97.9444,"RA_OF_ASC_NODE":138.1043,"ARG_OF_PERICENTER":98.1102,"MEAN_ANOMALY":262.0267,"EPHEMERIS_TYPE":0,"CLASSIFICATION_TYPE":"U","NORAD_CAT_ID":43005,"ELEMENT_SET_NO":999,"REV_AT_EPOCH":44864,"BSTAR":0.00018297002,"MEAN_MOTION_DOT":1.242e-5,"MEAN_MOTION_DDOT":0},{"OBJECT_NAME":"FENGYUN 3D","OBJECT_ID":"2017-072A","EPOCH":"2026-03-05T06:23:57.507648","MEAN_MOTION":14.19714419,"ECCENTRICITY":0.00018045,"INCLINATION":99.002,"RA_OF_ASC_NODE":36.8703,"ARG_OF_PERICENTER":21.7267,"MEAN_ANOMALY":338.3984,"EPHEMERIS_TYPE":0,"CLASSIFICATION_TYPE":"U","NORAD_CAT_ID":43010,"ELEMENT_SET_NO":999,"REV_AT_EPOCH":43024,"BSTAR":0.00025564018,"MEAN_MOTION_DOT":4.95e-6,"MEAN_MOTION_DDOT":0},{"OBJECT_NAME":"CZ-4C R/B","OBJECT_ID":"2017-072C","EPOCH":"2026-03-05T06:14:51.040608","MEAN_MOTION":14.58686903,"ECCENTRICITY":0.01236838,"INCLINATION":98.5701,"RA_OF_ASC_NODE":168.9215,"ARG_OF_PERICENTER":111.9042,"MEAN_ANOMALY":249.5359,"EPHEMERIS_TYPE":0,"CLASSIFICATION_TYPE":"U","NORAD_CAT_ID":43012,"ELEMENT_SET_NO":999,"REV_AT_EPOCH":44148,"BSTAR":0.00017444969,"MEAN_MOTION_DOT":8.49e-6,"MEAN_MOTION_DDOT":0},{"OBJECT_NAME":"NOAA 20 (JPSS-1)","OBJECT_ID":"2017-073A","EPOCH":"2026-03-05T05:55:28.354944","MEAN_MOTION":14.19534754,"ECCENTRICITY":0.00010111,"INCLINATION":98.7688,"RA_OF_ASC_NODE":4.6783,"ARG_OF_PERICENTER":143.4453,"MEAN_ANOMALY":216.6792,"EPHEMERIS_TYPE":0,"CLASSIFICATION_TYPE":"U","NORAD_CAT_ID":43013,"ELEMENT_SET_NO":999,"REV_AT_EPOCH":42972,"BSTAR":7.6800451e-5,"MEAN_MOTION_DOT":1.18e-6,"MEAN_MOTION_DDOT":0},{"OBJECT_NAME":"MAKERSAT 0","OBJECT_ID":"2017-073D","EPOCH":"2026-03-05T04:23:01.430016","MEAN_MOTION":15.27547333,"ECCENTRICITY":0.01158364,"INCLINATION":97.4789,"RA_OF_ASC_NODE":306.147,"ARG_OF_PERICENTER":282.0511,"MEAN_ANOMALY":76.7766,"EPHEMERIS_TYPE":0,"CLASSIFICATION_TYPE":"U","NORAD_CAT_ID":43016,"ELEMENT_SET_NO":999,"REV_AT_EPOCH":45056,"BSTAR":0.00080215589,"MEAN_MOTION_DOT":0.00026363,"MEAN_MOTION_DDOT":0}]
